CCSDS_OMM_VERS = 2.0
CREATION_DATE  = 
ORIGINATOR     = 

OBJECT_NAME    = STARLINK-36654
OBJECT_ID      = 2026-033T
CENTER_NAME    = EARTH
REF_FRAME      = TEME
TIME_SYSTEM    = UTC
MEAN_ELEMENT_THEORY = SGP/SGP4

EPOCH          = 2026-03-07T00:44:14.728992
MEAN_MOTION    = 15.82122213
ECCENTRICITY   = .000248
INCLINATION    = 42.9972
RA_OF_ASC_NODE = 287.6488
ARG_OF_PERICENTER = 261.7221
MEAN_ANOMALY   = 98.3369

EPHEMERIS_TYPE = 0
CLASSIFICATION_TYPE = U
NORAD_CAT_ID   = 67838
ELEMENT_SET_NO = 999
REV_AT_EPOCH   = 420
BSTAR          = .12663E-2
MEAN_MOTION_DOT = .276167E-2
MEAN_MOTION_DDOT = 0

CCSDS_OMM_VERS = 2.0
CREATION_DATE  = 
ORIGINATOR     = 

OBJECT_NAME    = STARLINK-36652
OBJECT_ID      = 2026-033U
CENTER_NAME    = EARTH
REF_FRAME      = TEME
TIME_SYSTEM    = UTC
MEAN_ELEMENT_THEORY = SGP/SGP4

EPOCH          = 2026-03-06T23:12:16.378272
MEAN_MOTION    = 15.82021632
ECCENTRICITY   = .0001985
INCLINATION    = 42.9975
RA_OF_ASC_NODE = 288.0302
ARG_OF_PERICENTER = 275.4915
MEAN_ANOMALY   = 84.5730

EPHEMERIS_TYPE = 0
CLASSIFICATION_TYPE = U
NORAD_CAT_ID   = 67839
ELEMENT_SET_NO = 999
REV_AT_EPOCH   = 419
BSTAR          = .60717E-3
MEAN_MOTION_DOT = .129277E-2
MEAN_MOTION_DDOT = 0

CCSDS_OMM_VERS = 2.0
CREATION_DATE  = 
ORIGINATOR     = 

OBJECT_NAME    = STARLINK-36651
OBJECT_ID      = 2026-033V
CENTER_NAME    = EARTH
REF_FRAME      = TEME
TIME_SYSTEM    = UTC
MEAN_ELEMENT_THEORY = SGP/SGP4

EPOCH          = 2026-03-07T00:42:05.560128
MEAN_MOTION    = 15.82085310
ECCENTRICITY   = .000169
INCLINATION    = 42.9980
RA_OF_ASC_NODE = 287.6376
ARG_OF_PERICENTER = 279.2370
MEAN_ANOMALY   = 80.8310

EPHEMERIS_TYPE = 0
CLASSIFICATION_TYPE = U
NORAD_CAT_ID   = 67840
ELEMENT_SET_NO = 999
REV_AT_EPOCH   = 420
BSTAR          = .91359E-3
MEAN_MOTION_DOT = .19691E-2
MEAN_MOTION_DDOT = 0

CCSDS_OMM_VERS = 2.0
CREATION_DATE  = 
ORIGINATOR     = 

OBJECT_NAME    = STARLINK-36656
OBJECT_ID      = 2026-033W
CENTER_NAME    = EARTH
REF_FRAME      = TEME
TIME_SYSTEM    = UTC
MEAN_ELEMENT_THEORY = SGP/SGP4

EPOCH          = 2026-03-07T00:41:00.777408
MEAN_MOTION    = 15.82061701
ECCENTRICITY   = .0001946
INCLINATION    = 42.9979
RA_OF_ASC_NODE = 287.6307
ARG_OF_PERICENTER = 259.5190
MEAN_ANOMALY   = 100.5463

EPHEMERIS_TYPE = 0
CLASSIFICATION_TYPE = U
NORAD_CAT_ID   = 67841
ELEMENT_SET_NO = 999
REV_AT_EPOCH   = 420
BSTAR          = .63641E-3
MEAN_MOTION_DOT = .135888E-2
MEAN_MOTION_DDOT = 0

CCSDS_OMM_VERS = 2.0
CREATION_DATE  = 
ORIGINATOR     = 

OBJECT_NAME    = STARLINK-36653
OBJECT_ID      = 2026-033X
CENTER_NAME    = EARTH
REF_FRAME      = TEME
TIME_SYSTEM    = UTC
MEAN_ELEMENT_THEORY = SGP/SGP4

EPOCH          = 2026-03-07T00:39:55.849536
MEAN_MOTION    = 15.82081690
ECCENTRICITY   = .0002354
INCLINATION    = 42.9973
RA_OF_ASC_NODE = 287.6243
ARG_OF_PERICENTER = 263.7500
MEAN_ANOMALY   = 96.3103

EPHEMERIS_TYPE = 0
CLASSIFICATION_TYPE = U
NORAD_CAT_ID   = 67842
ELEMENT_SET_NO = 999
REV_AT_EPOCH   = 420
BSTAR          = .88107E-3
MEAN_MOTION_DOT = .1897E-2
MEAN_MOTION_DDOT = 0

CCSDS_OMM_VERS = 2.0
CREATION_DATE  = 
ORIGINATOR     = 

OBJECT_NAME    = STARLINK-36589
OBJECT_ID      = 2026-033Y
CENTER_NAME    = EARTH
REF_FRAME      = TEME
TIME_SYSTEM    = UTC
MEAN_ELEMENT_THEORY = SGP/SGP4

EPOCH          = 2026-03-07T02:09:45.733824
MEAN_MOTION    = 15.82132408
ECCENTRICITY   = .0002129
INCLINATION    = 42.9972
RA_OF_ASC_NODE = 287.2313
ARG_OF_PERICENTER = 274.7432
MEAN_ANOMALY   = 85.3197

EPHEMERIS_TYPE = 0
CLASSIFICATION_TYPE = U
NORAD_CAT_ID   = 67843
ELEMENT_SET_NO = 999
REV_AT_EPOCH   = 421
BSTAR          = .1402E-2
MEAN_MOTION_DOT = .307071E-2
MEAN_MOTION_DDOT = 0

CCSDS_OMM_VERS = 2.0
CREATION_DATE  = 
ORIGINATOR     = 

OBJECT_NAME    = STARLINK-36598
OBJECT_ID      = 2026-033Z
CENTER_NAME    = EARTH
REF_FRAME      = TEME
TIME_SYSTEM    = UTC
MEAN_ELEMENT_THEORY = SGP/SGP4

EPOCH          = 2026-03-07T02:08:40.638336
MEAN_MOTION    = 15.82136566
ECCENTRICITY   = .0002371
INCLINATION    = 42.9975
RA_OF_ASC_NODE = 287.2252
ARG_OF_PERICENTER = 258.9303
MEAN_ANOMALY   = 101.1302

EPHEMERIS_TYPE = 0
CLASSIFICATION_TYPE = U
NORAD_CAT_ID   = 67844
ELEMENT_SET_NO = 999
REV_AT_EPOCH   = 421
BSTAR          = .12309E-2
MEAN_MOTION_DOT = .268367E-2
MEAN_MOTION_DDOT = 0

CCSDS_OMM_VERS = 2.0
CREATION_DATE  = 
ORIGINATOR     = 

OBJECT_NAME    = STARLINK-36606
OBJECT_ID      = 2026-033AA
CENTER_NAME    = EARTH
REF_FRAME      = TEME
TIME_SYSTEM    = UTC
MEAN_ELEMENT_THEORY = SGP/SGP4

EPOCH          = 2026-03-07T02:07:36.146784
MEAN_MOTION    = 15.82132276
ECCENTRICITY   = .0002385
INCLINATION    = 42.9977
RA_OF_ASC_NODE = 287.2186
ARG_OF_PERICENTER = 250.3412
MEAN_ANOMALY   = 109.7202

EPHEMERIS_TYPE = 0
CLASSIFICATION_TYPE = U
NORAD_CAT_ID   = 67845
ELEMENT_SET_NO = 999
REV_AT_EPOCH   = 421
BSTAR          = .12972E-2
MEAN_MOTION_DOT = .283291E-2
MEAN_MOTION_DDOT = 0

CCSDS_OMM_VERS = 2.0
CREATION_DATE  = 
ORIGINATOR     = 

OBJECT_NAME    = STARLINK-36658
OBJECT_ID      = 2026-033AB
CENTER_NAME    = EARTH
REF_FRAME      = TEME
TIME_SYSTEM    = UTC
MEAN_ELEMENT_THEORY = SGP/SGP4

EPOCH          = 2026-03-07T02:06:31.276800
MEAN_MOTION    = 15.82151303
ECCENTRICITY   = .0002183
INCLINATION    = 42.9975
RA_OF_ASC_NODE = 287.2127
ARG_OF_PERICENTER = 267.5670
MEAN_ANOMALY   = 92.4952

EPHEMERIS_TYPE = 0
CLASSIFICATION_TYPE = U
NORAD_CAT_ID   = 67846
ELEMENT_SET_NO = 999
REV_AT_EPOCH   = 421
BSTAR          = .14669E-2
MEAN_MOTION_DOT = .322155E-2
MEAN_MOTION_DDOT = 0

CCSDS_OMM_VERS = 2.0
CREATION_DATE  = 
ORIGINATOR     = 

OBJECT_NAME    = STARLINK-36618
OBJECT_ID      = 2026-033AC
CENTER_NAME    = EARTH
REF_FRAME      = TEME
TIME_SYSTEM    = UTC
MEAN_ELEMENT_THEORY = SGP/SGP4

EPOCH          = 2026-03-07T04:00:03.000096
MEAN_MOTION    = 15.91681470
ECCENTRICITY   = .0001766
INCLINATION    = 42.9837
RA_OF_ASC_NODE = 284.7276
ARG_OF_PERICENTER = 263.6510
MEAN_ANOMALY   = 254.7320

EPHEMERIS_TYPE = 0
CLASSIFICATION_TYPE = U
NORAD_CAT_ID   = 67847
ELEMENT_SET_NO = 999
REV_AT_EPOCH   = 425
BSTAR          = -.37049E-3
MEAN_MOTION_DOT = -.128239E-2
MEAN_MOTION_DDOT = .13645E-4

CCSDS_OMM_VERS = 2.0
CREATION_DATE  = 
ORIGINATOR     = 

OBJECT_NAME    = STARLINK-36660
OBJECT_ID      = 2026-033AD
CENTER_NAME    = EARTH
REF_FRAME      = TEME
TIME_SYSTEM    = UTC
MEAN_ELEMENT_THEORY = SGP/SGP4

EPOCH          = 2026-03-07T00:34:32.030112
MEAN_MOTION    = 15.82103768
ECCENTRICITY   = .0002552
INCLINATION    = 42.9975
RA_OF_ASC_NODE = 287.5931
ARG_OF_PERICENTER = 270.1702
MEAN_ANOMALY   = 89.8878

EPHEMERIS_TYPE = 0
CLASSIFICATION_TYPE = U
NORAD_CAT_ID   = 67848
ELEMENT_SET_NO = 999
REV_AT_EPOCH   = 420
BSTAR          = .99179E-3
MEAN_MOTION_DOT = .214448E-2
MEAN_MOTION_DDOT = 0

CCSDS_OMM_VERS = 2.0
CREATION_DATE  = 
ORIGINATOR     = 

OBJECT_NAME    = STARLINK-36602
OBJECT_ID      = 2026-033AE
CENTER_NAME    = EARTH
REF_FRAME      = TEME
TIME_SYSTEM    = UTC
MEAN_ELEMENT_THEORY = SGP/SGP4

EPOCH          = 2026-03-07T02:04:21.980064
MEAN_MOTION    = 15.82121785
ECCENTRICITY   = .0002424
INCLINATION    = 42.9971
RA_OF_ASC_NODE = 287.1995
ARG_OF_PERICENTER = 256.6488
MEAN_ANOMALY   = 103.4113

EPHEMERIS_TYPE = 0
CLASSIFICATION_TYPE = U
NORAD_CAT_ID   = 67849
ELEMENT_SET_NO = 999
REV_AT_EPOCH   = 421
BSTAR          = .11893E-2
MEAN_MOTION_DOT = .258815E-2
MEAN_MOTION_DDOT = 0

