STARLINK-36654          
1 67838U 26033T   26066.03072603  .00276167  00000+0  12663-2 0  9995
2 67838  42.9972 287.6488 0002480 261.7221  98.3369 15.82122213  4206
STARLINK-36652          
1 67839U 26033U   26065.96685623  .00129277  00000+0  60717-3 0  9992
2 67839  42.9975 288.0302 0001985 275.4915  84.5730 15.82021632  4191
STARLINK-36651          
1 67840U 26033V   26066.02923102  .00196910  00000+0  91359-3 0  9993
2 67840  42.9980 287.6376 0001690 279.2370  80.8310 15.82085310  4203
STARLINK-36656          
1 67841U 26033W   26066.02848122  .00135888  00000+0  63641-3 0  9992
2 67841  42.9979 287.6307 0001946 259.5190 100.5463 15.82061701  4208
STARLINK-36653          
1 67842U 26033X   26066.02772974  .00189700  00000+0  88107-3 0  9990
2 67842  42.9973 287.6243 0002354 263.7500  96.3103 15.82081690  4200
STARLINK-36589          
1 67843U 26033Y   26066.09011266  .00307071  00000+0  14020-2 0  9993
2 67843  42.9972 287.2313 0002129 274.7432  85.3197 15.82132408  4216
STARLINK-36598          
1 67844U 26033Z   26066.08935924  .00268367  00000+0  12309-2 0  9991
2 67844  42.9975 287.2252 0002371 258.9303 101.1302 15.82136566  4216
STARLINK-36606          
1 67845U 26033AA  26066.08861281  .00283291  00000+0  12972-2 0  9995
2 67845  42.9977 287.2186 0002385 250.3412 109.7202 15.82132276  4214
STARLINK-36658          
1 67846U 26033AB  26066.08786200  .00322155  00000+0  14669-2 0  9991
2 67846  42.9975 287.2127 0002183 267.5670  92.4952 15.82151303  4212
STARLINK-36618          
1 67847U 26033AC  26066.16670139 -.00128239  13645-4 -37049-3 0  9995
2 67847  42.9837 284.7276 0001766 263.6510 254.7320 15.91681470  4252
STARLINK-36660          
1 67848U 26033AD  26066.02398183  .00214448  00000+0  99179-3 0  9991
2 67848  42.9975 287.5931 0002552 270.1702  89.8878 15.82103768  4204
STARLINK-36602          
1 67849U 26033AE  26066.08636551  .00258815  00000+0  11893-2 0  9994
2 67849  42.9971 287.1995 0002424 256.6488 103.4113 15.82121785  4210
